{
    "links": {
        "self": "http://www.neowsapp.com/rest/v1/neo/3825455?api_key=iIulBulltgU6a56xZRHN4H3l9WmuAYTsLGpBGhQ2"
    },
    "id": "3825455",
    "neo_reference_id": "3825455",
    "name": "(2018 MT6)",
    "designation": "2018 MT6",
    "nasa_jpl_url": "http://ssd.jpl.nasa.gov/sbdb.cgi?sstr=3825455",
    "absolute_magnitude_h": 26.1,
    "estimated_diameter": {
        "kilometers": {
            "estimated_diameter_min": 0.0160160338,
            "estimated_diameter_max": 0.0358129403
        },
        "meters": {
            "estimated_diameter_min": 16.0160337979,
            "estimated_diameter_max": 35.8129403019
        },
        "miles": {
            "estimated_diameter_min": 0.0099518989,
            "estimated_diameter_max": 0.0222531225
        },
        "feet": {
            "estimated_diameter_min": 52.5460443254,
            "estimated_diameter_max": 117.4965270602
        }
    },
    "is_potentially_hazardous_asteroid": false,
    "close_approach_data": [
        {
            "close_approach_date": "2018-06-19",
            "close_approach_date_full": "2018-Jun-19 07:59",
            "epoch_date_close_approach": 1529395140000,
            "relative_velocity": {
                "kilometers_per_second": "6.2793712935",
                "kilometers_per_hour": "22605.736656612",
                "miles_per_hour": "14046.3256464376"
            },
            "miss_distance": {
                "astronomical": "0.0322754118",
                "lunar": "12.5551351902",
                "kilometers": "4828332.858652866",
                "miles": "3000186.9178509108"
            },
            "orbiting_body": "Earth"
        }
    ],
    "orbital_data": {
        "orbit_id": "4",
        "orbit_determination_date": "2018-07-11 06:26:22",
        "first_observation_date": "2018-06-19",
        "last_observation_date": "2018-07-10",
        "data_arc_in_days": 21,
        "observations_used": 32,
        "orbit_uncertainty": "8",
        "minimum_orbit_intersection": ".0245544",
        "jupiter_tisserand_invariant": "3.898",
        "epoch_osculation": "2458304.5",
        "eccentricity": ".4371119929571352",
        "semi_major_axis": "1.839180959787413",
        "inclination": "2.111270536121218",
        "ascending_node_longitude": "96.21710524464541",
        "orbital_period": "911.0351222199871",
        "perihelion_distance": "1.03525290504592",
        "perihelion_argument": "156.7931117147142",
        "aphelion_distance": "2.643109014528906",
        "perihelion_time": "2458276.303071971790",
        "mean_anomaly": "11.14215450379142",
        "mean_motion": ".3951549081036099",
        "equinox": "J2000",
        "orbit_class": {
            "orbit_class_type": "AMO",
            "orbit_class_description": "Near-Earth asteroid orbits similar to that of 1221 Amor",
            "orbit_class_range": "1.017 AU < q (perihelion) < 1.3 AU"
        }
    },
    "is_sentry_object": false
}